{
  "type": "FeatureCollection",
  "features": [
    {
      "type": "Feature",
      "properties": {
        "norad_id": 33412,
        "name": "COSMO-SKYMED 3",
        "group": "resource",
        "lat": -33.45289020940117,
        "lon": 14.371159054776323,
        "alt_km": 549.1323670346346,
        "timestamp": "2025-12-15T04:01:20.099416+00:00",
        "meta_object_name": "COSMO-SKYMED 3",
        "meta_object_id": "2008-054A",
        "meta_epoch": "2025-12-14T07:55:59.867328",
        "meta_mean_motion": 15.05377778,
        "meta_eccentricity": 0.00161302,
        "meta_inclination": 97.8477,
        "meta_ra_of_asc_node": 198.7487,
        "meta_arg_of_pericenter": 167.9396,
        "meta_mean_anomaly": 192.2219,
        "meta_ephemeris_type": 0,
        "meta_classification_type": "U",
        "meta_norad_cat_id": 33412,
        "meta_element_set_no": 999,
        "meta_rev_at_epoch": 92911,
        "meta_bstar": 0.00038835798,
        "meta_mean_motion_dot": 5.518e-05,
        "meta_mean_motion_ddot": 0,
        "tle_line1": "1 33412U 08054A   25348.33055402  .00005518  00000+0  38836-3 0  9993",
        "tle_line2": "2 33412  97.8477 198.7487 0016130 167.9396 192.2219 15.05377778929111"
      },
      "geometry": {
        "type": "Point",
        "coordinates": [
          14.371159054776323,
          -33.45289020940117
        ]
      }
    },
    {
      "type": "Feature",
      "properties": {
        "norad_id": 33446,
        "name": "YAOGAN-4",
        "group": "resource",
        "lat": -3.095658677821114,
        "lon": -80.32576638531148,
        "alt_km": 617.2398451521203,
        "timestamp": "2025-12-15T04:01:20.099426+00:00",
        "meta_object_name": "YAOGAN-4",
        "meta_object_id": "2008-061A",
        "meta_epoch": "2025-12-14T06:58:50.323872",
        "meta_mean_motion": 14.82689567,
        "meta_eccentricity": 0.00134687,
        "meta_inclination": 97.9179,
        "meta_ra_of_asc_node": 278.375,
        "meta_arg_of_pericenter": 317.8799,
        "meta_mean_anomaly": 42.1378,
        "meta_ephemeris_type": 0,
        "meta_classification_type": "U",
        "meta_norad_cat_id": 33446,
        "meta_element_set_no": 999,
        "meta_rev_at_epoch": 91826,
        "meta_bstar": 0.0002615583,
        "meta_mean_motion_dot": 2.059e-05,
        "meta_mean_motion_ddot": 0,
        "tle_line1": "1 33446U 08061A   25348.29086023  .00002059  00000+0  26156-3 0  9995",
        "tle_line2": "2 33446  97.9179 278.3750 0013468 317.8799  42.1378 14.82689567918269"
      },
      "geometry": {
        "type": "Point",
        "coordinates": [
          -80.32576638531148,
          -3.095658677821114
        ]
      }
    },
    {
      "type": "Feature",
      "properties": {
        "norad_id": 33492,
        "name": "GOSAT (IBUKI)",
        "group": "resource",
        "lat": -79.38443912268846,
        "lon": 146.99565176050388,
        "alt_km": 676.8708145126266,
        "timestamp": "2025-12-15T04:01:20.099437+00:00",
        "meta_object_name": "GOSAT (IBUKI)",
        "meta_object_id": "2009-002A",
        "meta_epoch": "2025-12-14T07:07:40.584000",
        "meta_mean_motion": 14.67558841,
        "meta_eccentricity": 9.46e-05,
        "meta_inclination": 98.077,
        "meta_ra_of_asc_node": 96.8786,
        "meta_arg_of_pericenter": 94.1589,
        "meta_mean_anomaly": 265.9723,
        "meta_ephemeris_type": 0,
        "meta_classification_type": "U",
        "meta_norad_cat_id": 33492,
        "meta_element_set_no": 999,
        "meta_rev_at_epoch": 90434,
        "meta_bstar": 0.00022232036,
        "meta_mean_motion_dot": 1.213e-05,
        "meta_mean_motion_ddot": 0,
        "tle_line1": "1 33492U 09002A   25348.29699750  .00001213  00000+0  22232-3 0  9991",
        "tle_line2": "2 33492  98.0770  96.8786 0000946  94.1589 265.9723 14.67558841904346"
      },
      "geometry": {
        "type": "Point",
        "coordinates": [
          146.99565176050388,
          -79.38443912268846
        ]
      }
    },
    {
      "type": "Feature",
      "properties": {
        "norad_id": 35681,
        "name": "DEIMOS-1",
        "group": "resource",
        "lat": 58.26147852116625,
        "lon": 136.9974654902336,
        "alt_km": 637.8358638090249,
        "timestamp": "2025-12-15T04:01:20.099449+00:00",
        "meta_object_name": "DEIMOS-1",
        "meta_object_id": "2009-041A",
        "meta_epoch": "2025-12-14T08:13:02.540928",
        "meta_mean_motion": 14.74956194,
        "meta_eccentricity": 0.00027288,
        "meta_inclination": 97.7149,
        "meta_ra_of_asc_node": 148.8708,
        "meta_arg_of_pericenter": 77.8357,
        "meta_mean_anomaly": 282.3159,
        "meta_ephemeris_type": 0,
        "meta_classification_type": "U",
        "meta_norad_cat_id": 35681,
        "meta_element_set_no": 999,
        "meta_rev_at_epoch": 87963,
        "meta_bstar": 0.00015765579,
        "meta_mean_motion_dot": 1.012e-05,
        "meta_mean_motion_ddot": 0,
        "tle_line1": "1 35681U 09041A   25348.34239052  .00001012  00000+0  15766-3 0  9998",
        "tle_line2": "2 35681  97.7149 148.8708 0002728  77.8357 282.3159 14.74956194879637"
      },
      "geometry": {
        "type": "Point",
        "coordinates": [
          136.9974654902336,
          58.26147852116625
        ]
      }
    },
    {
      "type": "Feature",
      "properties": {
        "norad_id": 35682,
        "name": "DUBAISAT-1",
        "group": "resource",
        "lat": -8.872952324014939,
        "lon": 121.06571379925764,
        "alt_km": 645.7459419494426,
        "timestamp": "2025-12-15T04:01:20.099460+00:00",
        "meta_object_name": "DUBAISAT-1",
        "meta_object_id": "2009-041B",
        "meta_epoch": "2025-12-14T08:31:13.328832",
        "meta_mean_motion": 14.74610756,
        "meta_eccentricity": 0.00094728,
        "meta_inclination": 97.9785,
        "meta_ra_of_asc_node": 119.0108,
        "meta_arg_of_pericenter": 308.9441,
        "meta_mean_anomaly": 51.0923,
        "meta_ephemeris_type": 0,
        "meta_classification_type": "U",
        "meta_norad_cat_id": 35682,
        "meta_element_set_no": 999,
        "meta_rev_at_epoch": 87785,
        "meta_bstar": 0.00026965499,
        "meta_mean_motion_dot": 1.748e-05,
        "meta_mean_motion_ddot": 0,
        "tle_line1": "1 35682U 09041B   25348.35501538  .00001748  00000+0  26965-3 0  9990",
        "tle_line2": "2 35682  97.9785 119.0108 0009472 308.9441  51.0923 14.74610756877858"
      },
      "geometry": {
        "type": "Point",
        "coordinates": [
          121.06571379925764,
          -8.872952324014939
        ]
      }
    },
    {
      "type": "Feature",
      "properties": {
        "norad_id": 35931,
        "name": "OCEANSAT-2",
        "group": "resource",
        "lat": -53.39684328291382,
        "lon": 158.29684391071225,
        "alt_km": 913.3950437247186,
        "timestamp": "2025-12-15T04:01:20.099471+00:00",
        "meta_object_name": "OCEANSAT-2",
        "meta_object_id": "2009-051A",
        "meta_epoch": "2025-12-14T08:02:04.268832",
        "meta_mean_motion": 13.9962434,
        "meta_eccentricity": 0.00161821,
        "meta_inclination": 98.2222,
        "meta_ra_of_asc_node": 348.7737,
        "meta_arg_of_pericenter": 40.8792,
        "meta_mean_anomaly": 319.3585,
        "meta_ephemeris_type": 0,
        "meta_classification_type": "U",
        "meta_norad_cat_id": 35931,
        "meta_element_set_no": 999,
        "meta_rev_at_epoch": 85347,
        "meta_bstar": -6.1908638e-05,
        "meta_mean_motion_dot": -1.28e-06,
        "meta_mean_motion_ddot": 0,
        "tle_line1": "1 35931U 09051A   25348.33477163 -.00000128  00000+0 -61909-4 0  9993",
        "tle_line2": "2 35931  98.2222 348.7737 0016182  40.8792 319.3585 13.99624340853477"
      },
      "geometry": {
        "type": "Point",
        "coordinates": [
          158.29684391071225,
          -53.39684328291382
        ]
      }
    },
    {
      "type": "Feature",
      "properties": {
        "norad_id": 35946,
        "name": "WORLDVIEW-2 (WV-2)",
        "group": "resource",
        "lat": -31.714511544852293,
        "lon": 65.50761748877314,
        "alt_km": 772.4430227522253,
        "timestamp": "2025-12-15T04:01:20.099481+00:00",
        "meta_object_name": "WORLDVIEW-2 (WV-2)",
        "meta_object_id": "2009-055A",
        "meta_epoch": "2025-12-14T08:07:40.961856",
        "meta_mean_motion": 14.37724694,
        "meta_eccentricity": 0.00051312,
        "meta_inclination": 98.4788,
        "meta_ra_of_asc_node": 59.401,
        "meta_arg_of_pericenter": 66.5899,
        "meta_mean_anomaly": 293.5827,
        "meta_ephemeris_type": 0,
        "meta_classification_type": "U",
        "meta_norad_cat_id": 35946,
        "meta_element_set_no": 999,
        "meta_rev_at_epoch": 84908,
        "meta_bstar": 8.2575701e-05,
        "meta_mean_motion_dot": 2.05e-06,
        "meta_mean_motion_ddot": 0,
        "tle_line1": "1 35946U 09055A   25348.33866854  .00000205  00000+0  82576-4 0  9999",
        "tle_line2": "2 35946  98.4788  59.4010 0005131  66.5899 293.5827 14.37724694849087"
      },
      "geometry": {
        "type": "Point",
        "coordinates": [
          65.50761748877314,
          -31.714511544852293
        ]
      }
    }
  ]
}